IRIDIUM 155             
1 43573U 18061E   23271.09577256  .00000172  00000+0  54437-4 0  9990
2 43573  86.3922 111.7645 0002206  80.6247 279.5198 14.34215107271027
IRIDIUM 154             
1 43574U 18061F   23270.65812688  .00000156  00000+0  48568-4 0  9993
2 43574  86.3927 112.0327 0002282  92.8974 267.2483 14.34214879271004
IRIDIUM 163             
1 43575U 18061G   23271.54608598  .00000150  00000+0  46534-4 0  9991
2 43575  86.3922 111.6074 0002094  89.2944 270.8492 14.34217662271106
IRIDIUM 156             
1 43576U 18061H   23271.52072718  .00000153  00000+0  47559-4 0  9990
2 43576  86.3923 111.6238 0001891  83.1446 276.9965 14.34215718271083
IRIDIUM 164             
1 43577U 18061J   23271.50169566  .00000149  00000+0  46015-4 0  9998
2 43577  86.3923 111.6569 0001939  90.3012 269.8406 14.34214777271134
IRIDIUM 159             
1 43578U 18061K   23271.12114076  .00000159  00000+0  49554-4 0  9995
2 43578  86.3922 111.7738 0002181  87.4028 272.7417 14.34215707271046
IRIDIUM 180             
1 43922U 19002A   23271.46947566  .00000287  00000+0  95518-4 0  9992
2 43922  86.3969  48.4587 0002059 100.2416 259.9012 14.34216199246740
IRIDIUM 176             
1 43923U 19002B   23271.42263040  .00001935  00000+0  30285-3 0  9997
2 43923  86.6098  48.5119 0002255  91.2162 268.9314 14.72272650253181
IRIDIUM 168             
1 43924U 19002C   23270.90498761  .00000573  00000+0  19757-3 0  9998
2 43924  86.3975  48.7443 0002128  95.8312 264.3126 14.34214837246602
IRIDIUM 173             
1 43925U 19002D   23271.45044705  .00000447  00000+0  15267-3 0  9997
2 43925  86.3971  48.4456 0002207  93.7708 266.3740 14.34222003246679
IRIDIUM 169             
1 43926U 19002E   23271.48270733  .00000253  00000+0  76191-4 0  9992
2 43926  86.4173  80.0623 0004313  43.1441 317.0095 14.38609013247500
IRIDIUM 172             
1 43927U 19002F   23271.44410763  .00000711  00000+0  24675-3 0  9996
2 43927  86.3970  48.4533 0002134  95.5563 264.5876 14.34215278246670
IRIDIUM 175             
1 43928U 19002G   23270.73680346  .00002246  00000+0  35210-3 0  9996
2 43928  86.1535  36.8352 0002266  93.1408 267.0068 14.72255517253079
IRIDIUM 171             
1 43929U 19002H   23270.79715944  .00000060  00000+0  14465-4 0  9998
2 43929  86.3977  48.9195 0002081  96.5222 263.6211 14.34213847246574
IRIDIUM 170             
1 43930U 19002J   23271.42882207  .00001917  00000+0  30005-3 0  9997
2 43930  86.6100  48.5142 0002245  89.4729 270.6745 14.72267872253195
IRIDIUM 167             
1 43931U 19002K   23270.86058166  .00000556  00000+0  19153-3 0  9993
2 43931  86.3968  48.7101 0001867  95.0881 265.0528 14.34212937246585
IRIDIUM 181             
1 56726U 23068S   23271.05080176  .00000254  00000+0  69201-4 0  9999
2 56726  86.8568  89.6307 0000883  82.0041 278.1261 14.43576651 19173
IRIDIUM 177             
1 56727U 23068T   23270.51131779  .00000994  00000+0  12726-3 0  9996
2 56727  86.1927  80.5374 0002365  97.8620 262.2869 14.80237842 19371
IRIDIUM 174             
1 56728U 23068U   23271.51990199  .00000957  00000+0  12239-3 0  9995
2 56728  86.1936  80.1406 0002412  87.8295 272.3202 14.80239467 19529
IRIDIUM 178             
1 56729U 23068V   23271.51425908  .00000920  00000+0  11766-3 0  9991
2 56729  86.5728  85.1637 0002610  91.2682 268.8839 14.80229275 19525
IRIDIUM 179             
1 56730U 23068W   23271.03565921  .00000912  00000+0  11659-3 0  9992
2 56730  86.6736  86.1901 0002535  93.9062 266.2449 14.80228337 19458
